start=new Date('2021-08-31T00:00:00.000Z').valueOf();
sats=[{"TLE_LINE2":"2 46140  53.0545 133.6972 0001752  80.3656 279.7530 15.06386856 58861","COUNTRY_CODE":"US","MEAN_ANOMALY":"279.7530","MEAN_MOTION_DOT":"-0.00001449","APOAPSIS":"548.467","GP_ID":"183731437","REV_AT_EPOCH":"5886","EPHEMERIS_TYPE":"0","RCS_SIZE":"LARGE","MEAN_MOTION_DDOT":"0.0000000000000","TIME_SYSTEM":"UTC","RA_OF_ASC_NODE":"133.6972","PERIAPSIS":"546.041","DECAY_DATE":null,"INCLINATION":"53.0545","SEMIMAJOR_AXIS":"6925.389","NORAD_CAT_ID":"46140","OBJECT_NAME":"STARLINK-1594","ARG_OF_PERICENTER":"80.3656","PERIOD":"95.593","MEAN_MOTION":"15.06386856","ELEMENT_SET_NO":"999","FILE":"3105635","LAUNCH_DATE":"2020-08-18","MEAN_ELEMENT_THEORY":"SGP4","ECCENTRICITY":"0.00017520","BSTAR":"-0.00007841600000","OBJECT_ID":"2020-057Z","CLASSIFICATION_TYPE":"U","OBJECT_TYPE":"PAYLOAD","REF_FRAME":"TEME","CENTER_NAME":"EARTH","TLE_LINE1":"1 46140U 20057Z   21242.47806114 -.00001449  00000-0 -78416-4 0  9991","SITE":"AFETR","EPOCH":"2021-08-30T11:28:24.482496"},{"ARG_OF_PERICENTER":"79.5404","PERIOD":"95.593","MEAN_MOTION":"15.06379605","OBJECT_NAME":"STARLINK-1596","NORAD_CAT_ID":"46141","ECCENTRICITY":"0.00020740","FILE":"3105635","MEAN_ELEMENT_THEORY":"SGP4","LAUNCH_DATE":"2020-08-18","ELEMENT_SET_NO":"999","BSTAR":"-0.00010393000000","OBJECT_ID":"2020-057AA","OBJECT_TYPE":"PAYLOAD","CLASSIFICATION_TYPE":"U","REF_FRAME":"TEME","EPOCH":"2021-08-30T09:21:01.630080","TLE_LINE1":"1 46141U 20057AA  21242.38960220 -.00001829  00000-0 -10393-3 0  9992","SITE":"AFETR","CENTER_NAME":"EARTH","TLE_LINE2":"2 46141  53.0557 134.0929 0002074  79.5404 280.5819 15.06379605 57583","COUNTRY_CODE":"US","APOAPSIS":"548.712","MEAN_MOTION_DOT":"-0.00001829","MEAN_ANOMALY":"280.5819","REV_AT_EPOCH":"5758","GP_ID":"183731442","MEAN_MOTION_DDOT":"0.0000000000000","RCS_SIZE":"LARGE","EPHEMERIS_TYPE":"0","TIME_SYSTEM":"UTC","DECAY_DATE":null,"PERIAPSIS":"545.840","RA_OF_ASC_NODE":"134.0929","SEMIMAJOR_AXIS":"6925.411","INCLINATION":"53.0557"},{"TIME_SYSTEM":"UTC","EPHEMERIS_TYPE":"0","MEAN_MOTION_DDOT":"0.0000000000000","RCS_SIZE":"LARGE","INCLINATION":"53.0559","SEMIMAJOR_AXIS":"6925.382","PERIAPSIS":"546.194","RA_OF_ASC_NODE":"172.2074","DECAY_DATE":null,"COUNTRY_CODE":"US","TLE_LINE2":"2 46142  53.0559 172.2074 0001520  70.8545 289.2608 15.06389167 57740","GP_ID":"183734292","REV_AT_EPOCH":"5774","MEAN_ANOMALY":"289.2608","MEAN_MOTION_DOT":"0.00000662","APOAPSIS":"548.299","OBJECT_ID":"2020-057AB","SITE":"AFETR","TLE_LINE1":"1 46142U 20057AB  21242.80611055  .00000662  00000-0  63380-4 0  9996","CENTER_NAME":"EARTH","EPOCH":"2021-08-30T19:20:47.951520","REF_FRAME":"TEME","OBJECT_TYPE":"PAYLOAD","CLASSIFICATION_TYPE":"U","MEAN_ELEMENT_THEORY":"SGP4","FILE":"3105683","LAUNCH_DATE":"2020-08-18","ELEMENT_SET_NO":"999","ECCENTRICITY":"0.00015200","NORAD_CAT_ID":"46142","ARG_OF_PERICENTER":"70.8545","PERIOD":"95.593","MEAN_MOTION":"15.06389167","OBJECT_NAME":"STARLINK-1597","BSTAR":"0.00006338000000"},{"PERIAPSIS":"546.063","RA_OF_ASC_NODE":"155.6364","DECAY_DATE":null,"INCLINATION":"53.0535","SEMIMAJOR_AXIS":"6925.361","EPHEMERIS_TYPE":"0","MEAN_MOTION_DDOT":"0.0000000000000","RCS_SIZE":"LARGE","TIME_SYSTEM":"UTC","MEAN_ANOMALY":"282.2802","APOAPSIS":"548.388","MEAN_MOTION_DOT":"-0.00001489","GP_ID":"183731944","REV_AT_EPOCH":"5725","TLE_LINE2":"2 46143  53.0535 155.6364 0001679  77.8375 282.2802 15.06396072 57253","COUNTRY_CODE":"US","OBJECT_TYPE":"PAYLOAD","CLASSIFICATION_TYPE":"U","REF_FRAME":"TEME","SITE":"AFETR","TLE_LINE1":"1 46143U 20057AC  21242.04494724 -.00001489  00000-0 -81067-4 0  9997","CENTER_NAME":"EARTH","EPOCH":"2021-08-30T01:04:43.441536","OBJECT_ID":"2020-057AC","BSTAR":"-0.00008106700000","NORAD_CAT_ID":"46143","MEAN_MOTION":"15.06396072","PERIOD":"95.592","ARG_OF_PERICENTER":"77.8375","OBJECT_NAME":"STARLINK-1599","FILE":"3105635","LAUNCH_DATE":"2020-08-18","MEAN_ELEMENT_THEORY":"SGP4","ELEMENT_SET_NO":"999","ECCENTRICITY":"0.00016790"},{"DECAY_DATE":null,"PERIAPSIS":"546.046","RA_OF_ASC_NODE":"152.3742","SEMIMAJOR_AXIS":"6925.414","INCLINATION":"53.0547","MEAN_MOTION_DDOT":"0.0000000000000","RCS_SIZE":"LARGE","EPHEMERIS_TYPE":"0","TIME_SYSTEM":"UTC","MEAN_MOTION_DOT":"-0.00002625","APOAPSIS":"548.513","MEAN_ANOMALY":"304.5589","REV_AT_EPOCH":"5803","GP_ID":"183734020","TLE_LINE2":"2 46144  53.0547 152.3742 0001781  55.5568 304.5589 15.06378563 58034","COUNTRY_CODE":"US","OBJECT_TYPE":"PAYLOAD","CLASSIFICATION_TYPE":"U","REF_FRAME":"TEME","EPOCH":"2021-08-30T18:30:23.164416","SITE":"AFETR","TLE_LINE1":"1 46144U 20057AD  21242.77110144 -.00002625  00000-0 -15750-3 0  9997","CENTER_NAME":"EARTH","OBJECT_ID":"2020-057AD","BSTAR":"-0.00015750000000","PERIOD":"95.594","MEAN_MOTION":"15.06378563","ARG_OF_PERICENTER":"55.5568","OBJECT_NAME":"STARLINK-1606","NORAD_CAT_ID":"46144","ECCENTRICITY":"0.00017810","FILE":"3105682","LAUNCH_DATE":"2020-08-18","MEAN_ELEMENT_THEORY":"SGP4","ELEMENT_SET_NO":"999"},{"OBJECT_ID":"2020-057AE","EPOCH":"2021-08-30T10:00:50.164992","TLE_LINE1":"1 46145U 20057AE  21242.41724728  .00046739  00000-0  36245-3 0  9992","SITE":"AFETR","CENTER_NAME":"EARTH","OBJECT_TYPE":"PAYLOAD","REF_FRAME":"TEME","CLASSIFICATION_TYPE":"U","ECCENTRICITY":"0.00009530","FILE":"3105682","LAUNCH_DATE":"2020-08-18","MEAN_ELEMENT_THEORY":"SGP4","ELEMENT_SET_NO":"999","MEAN_MOTION":"15.71374105","PERIOD":"91.640","ARG_OF_PERICENTER":"100.0703","OBJECT_NAME":"STARLINK-1607","NORAD_CAT_ID":"46145","BSTAR":"0.00036245000000","TIME_SYSTEM":"UTC","MEAN_MOTION_DDOT":"0.0000000000000","RCS_SIZE":"LARGE","EPHEMERIS_TYPE":"0","SEMIMAJOR_AXIS":"6733.106","INCLINATION":"53.0515","DECAY_DATE":null,"PERIAPSIS":"354.329","RA_OF_ASC_NODE":"138.9551","COUNTRY_CODE":"US","TLE_LINE2":"2 46145  53.0515 138.9551 0000953 100.0703 260.0421 15.71374105 58182","REV_AT_EPOCH":"5818","GP_ID":"183734011","APOAPSIS":"355.613","MEAN_MOTION_DOT":"0.00046739","MEAN_ANOMALY":"260.0421"},{"CENTER_NAME":"EARTH","SITE":"AFETR","TLE_LINE1":"1 46146U 20057AF  21242.81716303 -.00002165  00000-0 -12651-3 0  9999","EPOCH":"2021-08-30T19:36:42.885792","OBJECT_TYPE":"PAYLOAD","REF_FRAME":"TEME","CLASSIFICATION_TYPE":"U","OBJECT_ID":"2020-057AF","BSTAR":"-0.00012651000000","ELEMENT_SET_NO":"999","LAUNCH_DATE":"2020-08-18","FILE":"3105684","MEAN_ELEMENT_THEORY":"SGP4","ECCENTRICITY":"0.00017290","NORAD_CAT_ID":"46146","OBJECT_NAME":"STARLINK-1608","PERIOD":"95.593","ARG_OF_PERICENTER":"64.0456","MEAN_MOTION":"15.06389518","INCLINATION":"53.0543","SEMIMAJOR_AXIS":"6925.381","RA_OF_ASC_NODE":"172.1758","PERIAPSIS":"546.048","DECAY_DATE":null,"TIME_SYSTEM":"UTC","EPHEMERIS_TYPE":"0","RCS_SIZE":"LARGE","MEAN_MOTION_DDOT":"0.0000000000000","GP_ID":"183734335","REV_AT_EPOCH":"5775","MEAN_ANOMALY":"296.0711","APOAPSIS":"548.443","MEAN_MOTION_DOT":"-0.00002165","COUNTRY_CODE":"US","TLE_LINE2":"2 46146  53.0543 172.1758 0001729  64.0456 296.0711 15.06389518 57754"},{"MEAN_ANOMALY":"302.2879","MEAN_MOTION_DOT":"-0.00000435","APOAPSIS":"548.486","GP_ID":"183732444","REV_AT_EPOCH":"5830","TLE_LINE2":"2 46147  53.0549 173.4468 0001804  57.8284 302.2879 15.06392455 58307","COUNTRY_CODE":"US","RA_OF_ASC_NODE":"173.4468","PERIAPSIS":"545.987","DECAY_DATE":null,"INCLINATION":"53.0549","SEMIMAJOR_AXIS":"6925.372","EPHEMERIS_TYPE":"0","RCS_SIZE":"LARGE","MEAN_MOTION_DDOT":"0.0000000000000","TIME_SYSTEM":"UTC","BSTAR":"-0.00001032100000","NORAD_CAT_ID":"46147","OBJECT_NAME":"STARLINK-1611","PERIOD":"95.593","ARG_OF_PERICENTER":"57.8284","MEAN_MOTION":"15.06392455","ELEMENT_SET_NO":"999","FILE":"3105635","LAUNCH_DATE":"2020-08-18","MEAN_ELEMENT_THEORY":"SGP4","ECCENTRICITY":"0.00018040","OBJECT_TYPE":"PAYLOAD","REF_FRAME":"TEME","CLASSIFICATION_TYPE":"U","CENTER_NAME":"EARTH","SITE":"AFETR","TLE_LINE1":"1 46147U 20057AG  21242.53335007 -.00000435  00000-0 -10321-4 0  9998","EPOCH":"2021-08-30T12:48:01.446048","OBJECT_ID":"2020-057AG"},{"BSTAR":"0.00015262000000","PERIOD":"95.592","MEAN_MOTION":"15.06405523","ARG_OF_PERICENTER":"69.9567","OBJECT_NAME":"STARLINK-1616","NORAD_CAT_ID":"46148","ECCENTRICITY":"0.00018560","FILE":"3105635","MEAN_ELEMENT_THEORY":"SGP4","LAUNCH_DATE":"2020-08-18","ELEMENT_SET_NO":"999","CLASSIFICATION_TYPE":"U","OBJECT_TYPE":"PAYLOAD","REF_FRAME":"TEME","EPOCH":"2021-08-30T11:20:25.359072","SITE":"AFETR","TLE_LINE1":"1 46148U 20057AH  21242.47251573  .00001993  00000-0  15262-3 0  9993","CENTER_NAME":"EARTH","OBJECT_ID":"2020-057AH","APOAPSIS":"548.482","MEAN_MOTION_DOT":"0.00001993","MEAN_ANOMALY":"290.1622","REV_AT_EPOCH":"5731","GP_ID":"183732191","TLE_LINE2":"2 46148  53.0525 153.7138 0001856  69.9567 290.1622 15.06405523 57314","COUNTRY_CODE":"US","DECAY_DATE":null,"PERIAPSIS":"545.911","RA_OF_ASC_NODE":"153.7138","SEMIMAJOR_AXIS":"6925.332","INCLINATION":"53.0525","MEAN_MOTION_DDOT":"0.0000000000000","RCS_SIZE":"LARGE","EPHEMERIS_TYPE":"0","TIME_SYSTEM":"UTC"},{"BSTAR":"0.00003626700000","FILE":"3105635","MEAN_ELEMENT_THEORY":"SGP4","LAUNCH_DATE":"2020-08-18","ELEMENT_SET_NO":"999","ECCENTRICITY":"0.00018100","NORAD_CAT_ID":"46149","PERIOD":"95.592","ARG_OF_PERICENTER":"65.1234","MEAN_MOTION":"15.06394754","OBJECT_NAME":"STARLINK-1620","TLE_LINE1":"1 46149U 20057AJ  21242.48726722  .00000259  00000-0  36267-4 0  9991","SITE":"AFETR","CENTER_NAME":"EARTH","EPOCH":"2021-08-30T11:41:39.887808","OBJECT_TYPE":"PAYLOAD","CLASSIFICATION_TYPE":"U","REF_FRAME":"TEME","OBJECT_ID":"2020-057AJ","GP_ID":"183731443","REV_AT_EPOCH":"5859","MEAN_ANOMALY":"294.9943","APOAPSIS":"548.483","MEAN_MOTION_DOT":"0.00000259","COUNTRY_CODE":"US","TLE_LINE2":"2 46149  53.0545 153.6520 0001810  65.1234 294.9943 15.06394754 58592","INCLINATION":"53.0545","SEMIMAJOR_AXIS":"6925.365","PERIAPSIS":"545.976","RA_OF_ASC_NODE":"153.6520","DECAY_DATE":null,"TIME_SYSTEM":"UTC","EPHEMERIS_TYPE":"0","MEAN_MOTION_DDOT":"0.0000000000000","RCS_SIZE":"LARGE"}];
